#dP2021  6  1  6  0  0.00000000      96 __u+U ITR00 EXT  IAC
## 2160 194400.00000000   900.00000000 59366 0.2500000000000
+  116   C06C07C08C09C10C11C12C13C14C16C19C20C21C22C23C24C25
+        C26C27C28C29C30C32C33C34C35C36C37C38C39C40C41C42C43
+        C44C45C46E01E02E03E04E05E07E08E09E11E12E13E14E15E18
+        E19E21E24E25E26E27E30E31E33E36G01G02G03G04G05G06G07
+        G08G09G10G12G13G14G15G16G17G18G19G20G21G22G23G24G25
+        G26G27G28G29G30G31G32J01J02J03R01R02R03R04R05R07R08
+        R09R11R12R13R14R15R16R17R18R19R20R21R22R24  0  0  0
++        10  9 12  8  9  9  7  9  8 10  9  9  9  9  9  9  8
++         8  9  8  9  8  8  7  8 11  8  9 10  9  8  8  8 10
++         9 11  9  7  7 10  8  8  7  8  8  8  9  9  8  8  7
++         9  8  8  8  9  8  8  7 10  8  8  9  8  8  8  8  7
++         8  8  8  8  8  8  8  8  9  8  8  8  8  8  8  8  8
++         8  7  7  8  7  7  8 10  9  9  8  9  8  9  9  8 10
++         9  7  8  8  7  9  9  8  8  9  9  7  8  9  0  0  0
%c M  cc GPS ccc cccc cccc cccc cccc ccccc ccccc ccccc ccccc
%c cc cc ccc ccc cccc cccc cccc cccc ccccc ccccc ccccc ccccc
%f  0.0000000  0.000000000  0.00000000000  0.000000000000000
%f  0.0000000  0.000000000  0.00000000000  0.000000000000000
%i    0    0    0    0      0      0      0      0         0
%i    0    0    0    0      0      0      0      0         0
/* IAC                                ULTRA-RAPID PREDICTION
/* S/V CLOCKS ARE ALIGNED TO GNSS TIME                      
/* G:C1WC2W R:C1PC2P E:C1XC5X C:C2IC6I J:C1CC2S             
/* PCV:IGS14_2148 OL/AL:FES2004  NONE     YN ORB:CoN CLK:CoN
*  2021 06 02  1 45  0.00000000
PC06  -9867.739413  35435.858457 -19679.314463    453.847525
PC07 -15044.510212  22819.873433  32298.693079    117.957588
PC08 -25115.266846  30917.978488 -14286.211362   -892.058575
PC09   -705.639062  41475.727249  -5783.493136    479.426795
PC10   2278.264172  27737.181153  31971.930453    -35.043197
PC11 -13345.889727  13325.372325  20636.139375    375.454908
PC12 -14921.197793  -7462.718074  22392.910472    859.779397
PC13 -13867.747607  31729.618557 -24131.358311    283.913040
PC14 -19852.710927   4556.577728 -19018.706930    895.752308
PC16  -7553.699812  37220.808385 -17944.764829   -873.115157
PC19  11507.998695 -11646.814726  22631.202028    856.991013
PC20  24264.157318   1976.028725  13693.851134   -892.482359
PC21 -23072.676937 -15170.644451   3954.061492   -937.291848
PC22  -8286.225470 -18962.346587  18714.112707   -952.323633
PC23  -2535.628337  18802.040150  20470.186108   -923.125165
PC24 -25026.184906   6866.086028 -10292.654187   -875.058999
PC25 -18802.894876  19065.662686   7884.929708   -907.768269
PC26 -16615.569961  -7223.177528 -21239.318371    898.604194
PC27  12688.627975  17346.735156 -17812.967992    541.445194
PC28   2167.728406  27734.163997  -2239.841540    -67.329970
PC29   8767.679373 -22129.321769 -14580.681538    400.392656
PC30  15682.978322  -3123.053382 -22880.346555    469.153858
PC32  23226.650237  14977.892611  -3901.857175   -927.830130
PC33 -11484.728433  11691.852143 -22572.866903   -936.626094
PC34 -15630.432672   3909.975750  22769.294439   -659.930354
PC35  -2897.270961 -27710.555125   1874.790898   -252.885922
PC36  19495.267558 -18486.264454  -7526.529576   -726.867756
PC37  15668.889660   8336.512788  21550.068461   -881.849517
PC38 -20816.411072  32454.332685 -17199.305980    152.564841
PC39  -3754.805128  38517.182153 -16523.796776     31.477473
PC40  -4364.629736  22393.181414  35491.028757    166.847124
PC41   8079.315371  18916.797823 -18804.524362   -945.452829
PC42 -24521.873572  -2559.454196 -13005.627695   -913.535423
PC43  -9220.308013  21698.763650  14900.007097   -757.435844
PC44 -13266.661037 -17152.621674  17571.273952    218.266890
PC45   2420.702095 -18665.388243 -20591.770628    456.063822
PC46  25078.236140  -7722.478224   9460.428201    243.508589
PE01 -28445.348802   6030.463358   5543.311813  -1120.423099
PE02  28396.244054  -6111.420832  -5667.930971    223.217366
PE03  18184.485318  -2650.855759  23213.746291   -437.410361
PE04  -4320.612334  20145.545891 -21241.417123   -783.574670
PE05  21565.486073  16658.061146  11573.828038   -276.245922
PE07 -12327.426942 -26057.885023   6707.749899   -544.867710
PE08   3861.488775 -20298.988585  21197.264313   5992.640305
PE09  12641.290708  25961.285067  -6541.949505   5647.720152
PE11   1123.305428  24162.454007 -17060.539264   5904.627865
PE12 -13107.237417  26499.212956   1212.143749   5180.943790
PE13   -799.834788 -24389.459504  16759.186325    417.200303
PE14 -15741.155415  -1653.429265  17190.332984  -1451.695442
PE15  13003.570897 -26569.721374  -1185.699821    811.077677
PE18  21780.106962   1758.745804 -24166.377089  -1589.609620
PE19 -19101.050534    223.016831 -22599.858812    291.834685
PE21 -26183.314132  -6172.653261 -12350.466771   -668.294959
PE24   7655.010653  15641.630026  23920.408822   -932.282969
PE25  26071.270851   6299.858177  12525.180807   -535.647985
PE26 -14649.505654  -7105.547951  24718.005572   1741.583350
PE27  -8684.316209 -15352.098537 -23769.155302    -45.271291
PE30  14855.423258 -15172.396071 -20626.386372   2897.263327
PE31 -13801.020064  15451.344315  21147.569975   -481.770418
PE33 -19125.165046  13095.372437  18402.473845   -469.256155
PE36  14117.790413   7839.447374 -24808.629280   -215.239547
PG01 -13636.930561  22325.985992  -3578.379908    671.347005
PG02  18563.363529  -8047.534237 -16584.721972   -609.093524
PG03 -10987.471769  12957.497811 -20471.195457   -180.385416
PG04  -3977.981123  20564.895479 -16288.428247   -198.499458
PG05  23461.803350  -6101.347995  10912.399899    -43.706417
PG06  14445.441902   4720.097554 -21734.250532     22.075275
PG07  -2131.966823  21462.014288  15519.517893    167.260991
PG08 -10455.288720  12090.494598  21146.694480    -23.494291
PG09   5735.438487  24851.711467  -7431.435971   -348.927598
PG10 -19364.604138 -11778.094450  14180.698706   -133.970465
PG12  13445.631990 -11446.911283 -20050.139692    -49.250350
PG13  14765.689359  -2899.987173  21759.057757    139.547467
PG14  18575.168224  12797.404079  14041.916826     76.670599
PG15   9520.037014 -13663.214279  20261.669716   -145.272786
PG16 -25809.130237   -282.738564   6963.019518   -334.658112
PG17  13126.024325  21881.470015  -6936.127430    451.898332
PG18     16.689309 -19915.301264  17527.664736    348.511436
PG19  15744.282910  15274.076108 -15348.496834      7.890029
PG20  20379.388441 -10455.525430  13133.837152    521.590151
PG21 -16982.270002  19365.972112   5992.476650    122.246495
PG22 -19821.900861  10257.725532 -14061.953566   -599.134739
PG23  -8234.381934 -14854.947134  20411.932180    101.204490
PG24  15152.915997 -21431.784692   2009.906069    111.371550
PG25   -392.035256 -15418.566880 -21899.524488    148.260477
PG26 -26208.874166  -3992.674321  -3285.283810     93.052705
PG27 -15783.738964    -99.174545  21243.140301   -140.218471
PG28  22266.818475  11121.346407   9544.770384    561.549286
PG29  -3402.152934 -25099.403719  -7956.662012   -357.182198
PG30   9174.715139  13430.359926  21027.812020   -433.756030
PG31 -16848.264821  -1962.300271 -20629.843299   -120.691393
PG32 -15808.503509 -19374.869285  -9090.397494     19.813910
PJ01 -24551.137398  16281.170953 -25574.797148   -388.502494
PJ02 -30440.431040  25293.955302  19334.931580     -0.088351
PJ03 -27161.152688  26470.562171  23416.649211     -6.949228
PR01  11507.827981  -4751.529891  22272.723964     80.281747
PR02  -7253.969130 -16684.648302  17953.213857    480.853915
PR03 -19095.042582 -16747.917611   2678.428764     36.975917
PR04 -19961.669525  -7508.949920 -13964.642531     89.441612
PR05  -9769.859326   5876.284492 -22804.110395     72.828824
PR07  19343.239219  16484.813854  -1865.526814    -42.394357
PR08  19987.959796   7297.403400  14113.886473    -59.313293
PR09  -4655.456227  13256.898463  21288.879682     -4.155306
PR11  23258.605243  -4955.153069   9257.421456     -8.526732
PR12  20226.752526 -12705.313262  -8901.002335    233.781798
PR13   5525.646804 -13206.042245 -21127.796175    -55.633394
PR14 -13128.694335  -5676.923693 -21103.759885     64.889778
PR15 -23461.939427   4885.562970  -8712.955240    103.499038
PR16 -19353.458625  13505.453237   9819.925735    -15.823582
PR17  -5789.148853 -16912.416338  18182.082333    429.110063
PR18 -10581.830623    197.911916  23213.955787     78.605698
PR19 -10452.460234  16395.363548  16504.810177   -146.083563
PR20  -3620.628587  25124.469701  -2263.056319    -50.161106
PR21   6158.586228  15934.785344 -18958.841424   -213.421496
PR22  10703.051185  -1476.137743 -23134.369756   -115.632384
PR24   2818.767779 -25171.808955   2982.649539     44.934779
EOF
